{
"type": "FeatureCollection",
"name": "city_boundary_official",
"xy_coordinate_resolution": 1e-08,
"features": [
{ "type": "Feature", "properties": { "name": "Sopot", "teryt": "2264011", "geometry_status": "OFFICIAL_PRG_UNSIMPLIFIED", "source": "GUGiK Państwowy Rejestr Granic", "source_version": "2026-04-13T10:38:36", "area_m2": 27717276.543820415, "vertex_count": 515, "includes_marine_territory": true }, "geometry": { "type": "Polygon", "coordinates": [ [ [ 18.5675693, 54.423763 ], [ 18.56757038, 54.42376291 ], [ 18.56759978, 54.42376061 ], [ 18.57056189, 54.42352402 ], [ 18.5706124, 54.42353294 ], [ 18.57090438, 54.42358888 ], [ 18.57279574, 54.4239465 ], [ 18.57437218, 54.4243691 ], [ 18.57485303, 54.42449799 ], [ 18.5764275, 54.42491995 ], [ 18.57659361, 54.42496453 ], [ 18.57674256, 54.42500488 ], [ 18.57681386, 54.42502394 ], [ 18.57691149, 54.42504198 ], [ 18.57694826, 54.42504927 ], [ 18.57747443, 54.42500318 ], [ 18.57758817, 54.42491746 ], [ 18.5776929, 54.42483789 ], [ 18.57845895, 54.4242541 ], [ 18.5790318, 54.42422018 ], [ 18.57974926, 54.42418071 ], [ 18.58006229, 54.42423069 ], [ 18.57986747, 54.42535029 ], [ 18.5797783, 54.42582348 ], [ 18.5797325, 54.42582055 ], [ 18.57959462, 54.42581178 ], [ 18.57922731, 54.42578093 ], [ 18.57899676, 54.42575643 ], [ 18.5795396, 54.42625894 ], [ 18.58206209, 54.42697024 ], [ 18.582308, 54.4267298 ], [ 18.58339236, 54.42566862 ], [ 18.58387318, 54.42592325 ], [ 18.58393033, 54.42595442 ], [ 18.5842135, 54.42609222 ], [ 18.58421442, 54.42609274 ], [ 18.58512148, 54.42660731 ], [ 18.58528588, 54.42670355 ], [ 18.58530934, 54.42671718 ], [ 18.58580129, 54.42700491 ], [ 18.58623715, 54.42725966 ], [ 18.58626512, 54.42727606 ], [ 18.58635601, 54.42732836 ], [ 18.58716826, 54.42780418 ], [ 18.58735302, 54.42791227 ], [ 18.58783176, 54.42820113 ], [ 18.5878613, 54.42821886 ], [ 18.58852859, 54.42862091 ], [ 18.58884663, 54.42881324 ], [ 18.58895556, 54.4288765 ], [ 18.58900718, 54.42890868 ], [ 18.58908166, 54.42895531 ], [ 18.59047831, 54.42979519 ], [ 18.59061262, 54.42987621 ], [ 18.59066036, 54.42990616 ], [ 18.59067496, 54.42991427 ], [ 18.5908603, 54.43001821 ], [ 18.5911589, 54.43018575 ], [ 18.59142123, 54.43032857 ], [ 18.59168265, 54.43040734 ], [ 18.59444418, 54.43120527 ], [ 18.59541945, 54.43148702 ], [ 18.59720566, 54.43200304 ], [ 18.59996741, 54.43280084 ], [ 18.60272926, 54.43359849 ], [ 18.60549107, 54.43439616 ], [ 18.60825313, 54.43519368 ], [ 18.61101531, 54.43599122 ], [ 18.61377743, 54.43678862 ], [ 18.61653982, 54.43758603 ], [ 18.61651563, 54.43938279 ], [ 18.61649144, 54.44117955 ], [ 18.6164674, 54.4429764 ], [ 18.61644321, 54.44477316 ], [ 18.61641901, 54.44656991 ], [ 18.61639481, 54.44836667 ], [ 18.61637062, 54.45016351 ], [ 18.61634657, 54.45196027 ], [ 18.61632237, 54.45375702 ], [ 18.61629817, 54.45555378 ], [ 18.61627396, 54.45735062 ], [ 18.61624976, 54.45914737 ], [ 18.6162257, 54.46094412 ], [ 18.6162015, 54.46274088 ], [ 18.61617729, 54.46453772 ], [ 18.61615288, 54.46635235 ], [ 18.61307729, 54.46621408 ], [ 18.61000188, 54.46607583 ], [ 18.60692633, 54.46593741 ], [ 18.60385096, 54.465799 ], [ 18.60077546, 54.46566042 ], [ 18.59770013, 54.46552185 ], [ 18.59462466, 54.46538312 ], [ 18.59154937, 54.46524439 ], [ 18.58847394, 54.4651055 ], [ 18.5853987, 54.46496662 ], [ 18.58232331, 54.46482758 ], [ 18.57924795, 54.46468854 ], [ 18.57617276, 54.46454934 ], [ 18.57309743, 54.46441014 ], [ 18.57002228, 54.46427078 ], [ 18.566947, 54.46413143 ], [ 18.56387189, 54.46399191 ], [ 18.56217292, 54.46391484 ], [ 18.56169238, 54.46395148 ], [ 18.56140196, 54.46397358 ], [ 18.56114173, 54.46395907 ], [ 18.56098909, 54.46397334 ], [ 18.56095198, 54.46397765 ], [ 18.5609403, 54.4639583 ], [ 18.56087904, 54.46394457 ], [ 18.56061606, 54.46379637 ], [ 18.56058887, 54.46375993 ], [ 18.56048492, 54.46372582 ], [ 18.56041488, 54.46369057 ], [ 18.56024468, 54.46370654 ], [ 18.56016784, 54.46368174 ], [ 18.5599937, 54.46363538 ], [ 18.55991729, 54.4636192 ], [ 18.55984395, 54.46360185 ], [ 18.55976286, 54.46360447 ], [ 18.55967128, 54.46362924 ], [ 18.55959231, 54.4636739 ], [ 18.55940122, 54.46369626 ], [ 18.55924099, 54.4636864 ], [ 18.55913028, 54.46366517 ], [ 18.55898648, 54.46368371 ], [ 18.55881369, 54.46369089 ], [ 18.55871072, 54.46366118 ], [ 18.55865157, 54.46362093 ], [ 18.55866057, 54.46356851 ], [ 18.55869593, 54.46344688 ], [ 18.55867656, 54.4634175 ], [ 18.55856651, 54.46337739 ], [ 18.55843102, 54.46339455 ], [ 18.55834154, 54.46338113 ], [ 18.55822077, 54.4634373 ], [ 18.55818334, 54.46345167 ], [ 18.55813445, 54.46347436 ], [ 18.558079, 54.46342313 ], [ 18.55814007, 54.46338844 ], [ 18.55803525, 54.46338129 ], [ 18.55797734, 54.46337607 ], [ 18.55794164, 54.46339358 ], [ 18.55787405, 54.4634469 ], [ 18.55787927, 54.46346808 ], [ 18.55791107, 54.46349255 ], [ 18.55785341, 54.46349425 ], [ 18.55777844, 54.46348193 ], [ 18.55772502, 54.46350006 ], [ 18.55769008, 54.46348252 ], [ 18.55762184, 54.46343216 ], [ 18.55752158, 54.46343163 ], [ 18.55743747, 54.46330202 ], [ 18.55731239, 54.46322299 ], [ 18.55732553, 54.46312302 ], [ 18.55726113, 54.46310544 ], [ 18.55719772, 54.46308094 ], [ 18.55718072, 54.463044 ], [ 18.55712249, 54.46302639 ], [ 18.55708517, 54.46302665 ], [ 18.55703075, 54.46305107 ], [ 18.55696634, 54.46305505 ], [ 18.55694968, 54.46303213 ], [ 18.55690503, 54.46300367 ], [ 18.55680686, 54.46299729 ], [ 18.5567911, 54.46299548 ], [ 18.55660875, 54.46293469 ], [ 18.5565319, 54.46293118 ], [ 18.55655836, 54.46293744 ], [ 18.55649936, 54.46295397 ], [ 18.5564403, 54.46296556 ], [ 18.5562393, 54.46295139 ], [ 18.55631999, 54.46288498 ], [ 18.55618125, 54.46293513 ], [ 18.5561258, 54.46288399 ], [ 18.55615572, 54.4628268 ], [ 18.55613196, 54.46279232 ], [ 18.5561662, 54.46274706 ], [ 18.55616046, 54.46272184 ], [ 18.55599472, 54.46265711 ], [ 18.55583954, 54.46259799 ], [ 18.55563599, 54.46254313 ], [ 18.55554139, 54.46253844 ], [ 18.55543572, 54.46247972 ], [ 18.55532939, 54.46233808 ], [ 18.55532322, 54.46223496 ], [ 18.55527598, 54.46222035 ], [ 18.55513178, 54.4622203 ], [ 18.55500431, 54.46221379 ], [ 18.55493254, 54.46219848 ], [ 18.55483496, 54.46220199 ], [ 18.55475452, 54.46222913 ], [ 18.5546557, 54.46222024 ], [ 18.55459016, 54.46223249 ], [ 18.55452469, 54.46222614 ], [ 18.55449261, 54.46226061 ], [ 18.55440282, 54.46225797 ], [ 18.55435314, 54.46223367 ], [ 18.5543032, 54.46223623 ], [ 18.55424237, 54.46220839 ], [ 18.55415146, 54.46220288 ], [ 18.55411025, 54.46220019 ], [ 18.55403617, 54.46223063 ], [ 18.55397333, 54.46223684 ], [ 18.5539233, 54.46225486 ], [ 18.55381953, 54.46226819 ], [ 18.55369902, 54.46226371 ], [ 18.55346056, 54.46223848 ], [ 18.55317775, 54.46226376 ], [ 18.55295596, 54.46230817 ], [ 18.55266901, 54.46234704 ], [ 18.55266203, 54.46233296 ], [ 18.55263364, 54.46228637 ], [ 18.55262305, 54.46225542 ], [ 18.55263133, 54.46224038 ], [ 18.5526363, 54.46223156 ], [ 18.55249376, 54.46219447 ], [ 18.55242796, 54.46217537 ], [ 18.55203552, 54.46205335 ], [ 18.55151433, 54.46198125 ], [ 18.55148917, 54.46197777 ], [ 18.55136916, 54.46196475 ], [ 18.55133711, 54.46197766 ], [ 18.55130076, 54.46195815 ], [ 18.55128053, 54.46192176 ], [ 18.551204, 54.46191933 ], [ 18.55116976, 54.46189639 ], [ 18.55085797, 54.46185379 ], [ 18.55070741, 54.46183894 ], [ 18.55046679, 54.46182548 ], [ 18.5503665, 54.46181003 ], [ 18.55030616, 54.46161211 ], [ 18.54871247, 54.46135997 ], [ 18.54869244, 54.46130418 ], [ 18.54854794, 54.46121203 ], [ 18.54800789, 54.46138698 ], [ 18.54789951, 54.46145908 ], [ 18.54746288, 54.46145674 ], [ 18.54746268, 54.4613722 ], [ 18.5458931, 54.46079818 ], [ 18.54568876, 54.4607514 ], [ 18.5455642, 54.46073166 ], [ 18.54542226, 54.46048379 ], [ 18.54521669, 54.46040215 ], [ 18.54452645, 54.46045099 ], [ 18.54358815, 54.46043599 ], [ 18.54358741, 54.46042701 ], [ 18.54356844, 54.46007724 ], [ 18.54355772, 54.45995465 ], [ 18.54355179, 54.45968182 ], [ 18.54351788, 54.45947389 ], [ 18.5434513, 54.4586973 ], [ 18.54344146, 54.4585828 ], [ 18.54341344, 54.45819003 ], [ 18.54339736, 54.45796585 ], [ 18.5433213, 54.45705535 ], [ 18.54245028, 54.45732933 ], [ 18.54194904, 54.45748701 ], [ 18.54128273, 54.45769781 ], [ 18.54106692, 54.45772744 ], [ 18.53960271, 54.45792463 ], [ 18.53910679, 54.4582068 ], [ 18.53885409, 54.45828106 ], [ 18.5379361, 54.45854947 ], [ 18.53793514, 54.45854975 ], [ 18.53755158, 54.45866376 ], [ 18.53705045, 54.4588092 ], [ 18.53663576, 54.45886666 ], [ 18.5353224, 54.45904759 ], [ 18.53267626, 54.45889019 ], [ 18.53147319, 54.45833675 ], [ 18.53139147, 54.45832579 ], [ 18.53126372, 54.45830883 ], [ 18.52985584, 54.45812085 ], [ 18.52815385, 54.45789246 ], [ 18.52689366, 54.45772348 ], [ 18.52605007, 54.45760892 ], [ 18.52501468, 54.45747183 ], [ 18.52320981, 54.45753994 ], [ 18.52257969, 54.45752488 ], [ 18.52176295, 54.45760451 ], [ 18.52110733, 54.45766951 ], [ 18.52001398, 54.45784951 ], [ 18.5199798, 54.45787822 ], [ 18.51994333, 54.45785978 ], [ 18.52036381, 54.45722457 ], [ 18.52109521, 54.45619306 ], [ 18.52115202, 54.45611375 ], [ 18.52042381, 54.45580369 ], [ 18.52005515, 54.45562343 ], [ 18.52002055, 54.45560651 ], [ 18.51936171, 54.45535392 ], [ 18.51916014, 54.45521768 ], [ 18.51908728, 54.4551259 ], [ 18.51883902, 54.45450381 ], [ 18.51877342, 54.45429116 ], [ 18.51879406, 54.45395954 ], [ 18.51891065, 54.45325457 ], [ 18.5190064, 54.45263243 ], [ 18.51903839, 54.45243096 ], [ 18.51912428, 54.45211514 ], [ 18.51929053, 54.45183816 ], [ 18.5192215, 54.45181725 ], [ 18.51822506, 54.45134436 ], [ 18.51710393, 54.45082447 ], [ 18.51520989, 54.44994517 ], [ 18.51417367, 54.44946541 ], [ 18.51387252, 54.44932599 ], [ 18.51253879, 54.44869879 ], [ 18.51061272, 54.44781964 ], [ 18.50947725, 54.44729615 ], [ 18.50720792, 54.44624831 ], [ 18.50710435, 54.44625046 ], [ 18.50710141, 54.44619971 ], [ 18.50676575, 54.44604559 ], [ 18.50448458, 54.44500153 ], [ 18.50468323, 54.44474617 ], [ 18.50497991, 54.44415142 ], [ 18.50521686, 54.44381468 ], [ 18.5054857, 54.44347646 ], [ 18.50569035, 54.44328315 ], [ 18.50596353, 54.44312263 ], [ 18.50631491, 54.44296554 ], [ 18.50674172, 54.44283833 ], [ 18.50679655, 54.44282193 ], [ 18.50753759, 54.44260086 ], [ 18.50819428, 54.4423663 ], [ 18.5099141, 54.44194334 ], [ 18.51090214, 54.44171725 ], [ 18.51222058, 54.44134941 ], [ 18.51310505, 54.44108978 ], [ 18.51340656, 54.44101645 ], [ 18.51366927, 54.44098299 ], [ 18.51365759, 54.44092491 ], [ 18.51336136, 54.44060659 ], [ 18.51312584, 54.44033608 ], [ 18.51285816, 54.44006912 ], [ 18.51271152, 54.43997882 ], [ 18.51211457, 54.43969672 ], [ 18.5119277, 54.43958134 ], [ 18.51178876, 54.4394407 ], [ 18.51162714, 54.43922297 ], [ 18.51150807, 54.43905672 ], [ 18.51135457, 54.4389465 ], [ 18.51105016, 54.43881105 ], [ 18.51057238, 54.43859061 ], [ 18.50901474, 54.43774842 ], [ 18.50897517, 54.43772693 ], [ 18.50841887, 54.43742506 ], [ 18.50826019, 54.43730615 ], [ 18.50817136, 54.43716501 ], [ 18.50813249, 54.43702592 ], [ 18.50810489, 54.43675057 ], [ 18.50808902, 54.43613914 ], [ 18.50808721, 54.43606908 ], [ 18.50806556, 54.43522877 ], [ 18.50806332, 54.43514783 ], [ 18.50801729, 54.43396845 ], [ 18.50798464, 54.43313545 ], [ 18.50795844, 54.43301068 ], [ 18.50788661, 54.43289814 ], [ 18.50709458, 54.43202045 ], [ 18.50677851, 54.43164604 ], [ 18.50663129, 54.4314056 ], [ 18.50669183, 54.43132817 ], [ 18.50679011, 54.43126298 ], [ 18.50727908, 54.43118681 ], [ 18.50765658, 54.4310828 ], [ 18.50821996, 54.43088089 ], [ 18.50845136, 54.43080076 ], [ 18.50870155, 54.43076979 ], [ 18.50911657, 54.43072195 ], [ 18.50941007, 54.43064156 ], [ 18.50957368, 54.43055103 ], [ 18.5096741, 54.43045959 ], [ 18.50971016, 54.43034758 ], [ 18.50967387, 54.43000632 ], [ 18.50966734, 54.42971597 ], [ 18.50963864, 54.42938996 ], [ 18.50968757, 54.42924762 ], [ 18.50978667, 54.42908718 ], [ 18.51002219, 54.42891809 ], [ 18.51037227, 54.42877915 ], [ 18.51050992, 54.42870858 ], [ 18.51072084, 54.42849511 ], [ 18.5108782, 54.42833578 ], [ 18.51103003, 54.42820388 ], [ 18.5111468, 54.42806439 ], [ 18.51115361, 54.42793094 ], [ 18.51109732, 54.42753065 ], [ 18.51102535, 54.42746816 ], [ 18.51088761, 54.42716012 ], [ 18.51086924, 54.42692157 ], [ 18.51084564, 54.42656058 ], [ 18.51079711, 54.42631363 ], [ 18.51064771, 54.42564932 ], [ 18.51057205, 54.42556267 ], [ 18.51046481, 54.42521569 ], [ 18.51038274, 54.42491002 ], [ 18.51025747, 54.42483553 ], [ 18.51002586, 54.424834 ], [ 18.50989039, 54.42476907 ], [ 18.5095012, 54.42429867 ], [ 18.50944977, 54.42387886 ], [ 18.50937282, 54.42378655 ], [ 18.50921771, 54.42374112 ], [ 18.50883636, 54.42367794 ], [ 18.50865714, 54.42360089 ], [ 18.50815343, 54.42330006 ], [ 18.50781169, 54.4230882 ], [ 18.50769564, 54.42292311 ], [ 18.50754359, 54.42275034 ], [ 18.50818361, 54.42265089 ], [ 18.50992097, 54.42247862 ], [ 18.51201932, 54.42227091 ], [ 18.51428888, 54.42193145 ], [ 18.51556326, 54.42149458 ], [ 18.51611047, 54.42136799 ], [ 18.5170433, 54.4211676 ], [ 18.51820392, 54.42120576 ], [ 18.51944881, 54.42132889 ], [ 18.52018278, 54.4214737 ], [ 18.52053895, 54.42154395 ], [ 18.52078028, 54.42179143 ], [ 18.52234883, 54.42219974 ], [ 18.52405762, 54.42260814 ], [ 18.52443774, 54.42268178 ], [ 18.5261419, 54.4229546 ], [ 18.52721291, 54.42313725 ], [ 18.52789898, 54.42323102 ], [ 18.52915515, 54.42318177 ], [ 18.53102285, 54.42299029 ], [ 18.5319306, 54.4229854 ], [ 18.53329509, 54.42267679 ], [ 18.53436684, 54.42240557 ], [ 18.53548437, 54.42217188 ], [ 18.53628293, 54.42201838 ], [ 18.53732135, 54.42181638 ], [ 18.5377711, 54.4220415 ], [ 18.53885299, 54.42195888 ], [ 18.53910257, 54.42172255 ], [ 18.53944951, 54.42179108 ], [ 18.53982648, 54.42172902 ], [ 18.5402675, 54.42165275 ], [ 18.54086443, 54.42162213 ], [ 18.54125439, 54.42165785 ], [ 18.54173223, 54.42176847 ], [ 18.54227248, 54.42185553 ], [ 18.54277936, 54.42197104 ], [ 18.54336914, 54.42213361 ], [ 18.54436617, 54.42256595 ], [ 18.54490903, 54.42254688 ], [ 18.54552221, 54.42245211 ], [ 18.5462949, 54.42244107 ], [ 18.54693214, 54.4224868 ], [ 18.5471552, 54.42250681 ], [ 18.54732741, 54.4225151 ], [ 18.54745444, 54.42250914 ], [ 18.54786679, 54.42248984 ], [ 18.54866643, 54.42231658 ], [ 18.54942238, 54.42213714 ], [ 18.55066626, 54.42186553 ], [ 18.55204773, 54.42157244 ], [ 18.55286532, 54.42140779 ], [ 18.55346981, 54.42119613 ], [ 18.5540209, 54.42092075 ], [ 18.55464189, 54.42066561 ], [ 18.55543054, 54.42039039 ], [ 18.55594927, 54.42016213 ], [ 18.55743094, 54.41973285 ], [ 18.5576508, 54.4201082 ], [ 18.55779827, 54.42034848 ], [ 18.55819564, 54.42098607 ], [ 18.55855427, 54.42166275 ], [ 18.5588805, 54.42224496 ], [ 18.55917323, 54.42276261 ], [ 18.55925999, 54.422936 ], [ 18.55927456, 54.42296486 ], [ 18.55930829, 54.42303227 ], [ 18.55955423, 54.42301217 ], [ 18.5597029, 54.42299981 ], [ 18.55970259, 54.42295444 ], [ 18.56035094, 54.42272835 ], [ 18.5606627, 54.42262052 ], [ 18.5608389, 54.42255969 ], [ 18.5609639, 54.4225176 ], [ 18.56109343, 54.42248079 ], [ 18.56122767, 54.42244989 ], [ 18.56136537, 54.42242463 ], [ 18.56150578, 54.42240511 ], [ 18.56165382, 54.42239193 ], [ 18.56185954, 54.42237175 ], [ 18.56243586, 54.42295243 ], [ 18.56246758, 54.42298427 ], [ 18.56248882, 54.42300555 ], [ 18.56274424, 54.42326114 ], [ 18.56281798, 54.42333528 ], [ 18.56300547, 54.42352506 ], [ 18.56303344, 54.42355314 ], [ 18.5631153, 54.42363551 ], [ 18.56327059, 54.42379156 ], [ 18.56353228, 54.42380741 ], [ 18.56361849, 54.42381285 ], [ 18.56361952, 54.42381292 ], [ 18.56386078, 54.42383014 ], [ 18.56393883, 54.42383597 ], [ 18.56407947, 54.42384484 ], [ 18.56411355, 54.4238472 ], [ 18.56445417, 54.42385495 ], [ 18.56546201, 54.42387764 ], [ 18.56599116, 54.42388064 ], [ 18.56612568, 54.42388154 ], [ 18.56713513, 54.42378705 ], [ 18.5675693, 54.423763 ] ] ] } }
]
}
