{
"type": "FeatureCollection",
"name": "land_footprint_topographic",
"xy_coordinate_resolution": 1e-08,
"features": [
{ "type": "Feature", "properties": { "name": "Sopot mapped land incl. coastline detail", "source": "BDOT10k terrestrial footprint clipped to PRG city boundary", "geometry_status": "DERIVED_TOPOGRAPHIC_NOT_LEGAL", "note": "Physical mapped shore differs from cadastral marine boundary" }, "geometry": { "type": "Polygon", "coordinates": [ [ [ 18.59131094, 54.43026853 ], [ 18.59142116, 54.43032856 ], [ 18.59168267, 54.43040739 ], [ 18.59170973, 54.43041521 ], [ 18.5910478, 54.43079766 ], [ 18.59072147, 54.43098804 ], [ 18.59041575, 54.43116779 ], [ 18.58992311, 54.43147295 ], [ 18.58974436, 54.43159964 ], [ 18.58949816, 54.43174741 ], [ 18.58937897, 54.43182432 ], [ 18.58918998, 54.43195574 ], [ 18.58839474, 54.4325417 ], [ 18.58806796, 54.4327737 ], [ 18.58767963, 54.43305422 ], [ 18.58738782, 54.43325783 ], [ 18.58698734, 54.43353354 ], [ 18.58646566, 54.43386951 ], [ 18.58619271, 54.4340375 ], [ 18.5854988, 54.43446089 ], [ 18.585195, 54.4346596 ], [ 18.58459906, 54.43507622 ], [ 18.58430318, 54.43528332 ], [ 18.58360037, 54.43578992 ], [ 18.58262086, 54.43656966 ], [ 18.58229844, 54.43682162 ], [ 18.58185079, 54.43717976 ], [ 18.58152173, 54.43743169 ], [ 18.5809228, 54.43790726 ], [ 18.58064301, 54.43813652 ], [ 18.58053439, 54.43821606 ], [ 18.58047524, 54.43825389 ], [ 18.58040956, 54.43829744 ], [ 18.58035993, 54.43835435 ], [ 18.58030437, 54.43837322 ], [ 18.58025507, 54.43839777 ], [ 18.58023504, 54.43844148 ], [ 18.57989574, 54.43874282 ], [ 18.57961267, 54.43897405 ], [ 18.57889136, 54.43958807 ], [ 18.57859832, 54.4398287 ], [ 18.57794963, 54.44036683 ], [ 18.57762362, 54.44064735 ], [ 18.57711298, 54.44109273 ], [ 18.57680321, 54.44136754 ], [ 18.57636806, 54.44177516 ], [ 18.57604819, 54.44208608 ], [ 18.57559296, 54.44253929 ], [ 18.57537215, 54.44274213 ], [ 18.57509462, 54.44305896 ], [ 18.57501216, 54.44314236 ], [ 18.57487982, 54.44330561 ], [ 18.57475708, 54.4434954 ], [ 18.57468759, 54.44359225 ], [ 18.57459792, 54.44373083 ], [ 18.57448297, 54.44391274 ], [ 18.5743829, 54.44411808 ], [ 18.57423443, 54.44446727 ], [ 18.57408132, 54.44486274 ], [ 18.5740073, 54.4451134 ], [ 18.57391816, 54.44543897 ], [ 18.57392904, 54.44557934 ], [ 18.5739262, 54.44566024 ], [ 18.57388201, 54.44578613 ], [ 18.57384651, 54.44586215 ], [ 18.57385585, 54.445943 ], [ 18.57389346, 54.4460502 ], [ 18.57388079, 54.44609655 ], [ 18.573825, 54.4461653 ], [ 18.57374661, 54.44624234 ], [ 18.57362533, 54.44633469 ], [ 18.57353293, 54.44637959 ], [ 18.57345306, 54.44640546 ], [ 18.57337935, 54.44643253 ], [ 18.57322996, 54.44646887 ], [ 18.57311753, 54.4464958 ], [ 18.57285939, 54.44659126 ], [ 18.57269107, 54.44668227 ], [ 18.57252053, 54.44679458 ], [ 18.57232323, 54.44692712 ], [ 18.57219367, 54.44702897 ], [ 18.57204522, 54.44716761 ], [ 18.57182249, 54.4473868 ], [ 18.57176892, 54.44743534 ], [ 18.57169288, 54.44749341 ], [ 18.57156751, 54.44757739 ], [ 18.57140928, 54.4476767 ], [ 18.57103714, 54.44794778 ], [ 18.57080691, 54.4481015 ], [ 18.57061134, 54.4482602 ], [ 18.57033985, 54.44846502 ], [ 18.57017125, 54.44858093 ], [ 18.57008238, 54.44868526 ], [ 18.56996915, 54.44878833 ], [ 18.569866, 54.44888667 ], [ 18.56981004, 54.44897098 ], [ 18.56976015, 54.44906475 ], [ 18.56970015, 54.44913708 ], [ 18.56957835, 54.44927815 ], [ 18.5694114, 54.44942742 ], [ 18.5691249, 54.44969394 ], [ 18.56900732, 54.44981372 ], [ 18.56867131, 54.45013715 ], [ 18.56835977, 54.45045123 ], [ 18.56824836, 54.45057094 ], [ 18.56818851, 54.45062898 ], [ 18.56805458, 54.45074861 ], [ 18.56796757, 54.45088036 ], [ 18.56788083, 54.45097157 ], [ 18.56759179, 54.45128689 ], [ 18.56727145, 54.45165802 ], [ 18.56692207, 54.4520909 ], [ 18.56664703, 54.4524229 ], [ 18.56647733, 54.45264111 ], [ 18.56622285, 54.45296842 ], [ 18.56613372, 54.4530954 ], [ 18.56605468, 54.45324615 ], [ 18.56582051, 54.4535783 ], [ 18.56573133, 54.45371004 ], [ 18.56564855, 54.45381916 ], [ 18.56545566, 54.45409913 ], [ 18.56526459, 54.45441121 ], [ 18.56507981, 54.45471144 ], [ 18.56502545, 54.45483252 ], [ 18.56497095, 54.45496672 ], [ 18.56490264, 54.45504972 ], [ 18.56486543, 54.45509598 ], [ 18.56481144, 54.45518263 ], [ 18.56478636, 54.45524798 ], [ 18.56476681, 54.45534545 ], [ 18.56474589, 54.4553977 ], [ 18.56471907, 54.45542493 ], [ 18.56465351, 54.45545203 ], [ 18.56461643, 54.45548642 ], [ 18.56459335, 54.45553865 ], [ 18.56458273, 54.45557907 ], [ 18.56456551, 54.455661 ], [ 18.5645364, 54.45571447 ], [ 18.56448062, 54.45577963 ], [ 18.56443902, 54.45584726 ], [ 18.56442628, 54.45589837 ], [ 18.56441533, 54.45597088 ], [ 18.56439216, 54.45603148 ], [ 18.56433229, 54.45610498 ], [ 18.56424539, 54.45620931 ], [ 18.56420963, 54.4563079 ], [ 18.56422342, 54.45636027 ], [ 18.56422299, 54.45640072 ], [ 18.5642001, 54.45643516 ], [ 18.56414856, 54.45647894 ], [ 18.56408053, 54.45655007 ], [ 18.56402874, 54.45661767 ], [ 18.56403664, 54.45664386 ], [ 18.56408154, 54.45664402 ], [ 18.56414092, 54.4566312 ], [ 18.56418972, 54.45664207 ], [ 18.5641915, 54.45666348 ], [ 18.5641028, 54.45676303 ], [ 18.56386289, 54.4570512 ], [ 18.56383988, 54.45709633 ], [ 18.56384989, 54.4571273 ], [ 18.56389449, 54.45715596 ], [ 18.56389207, 54.45717977 ], [ 18.56384187, 54.45730086 ], [ 18.56359738, 54.4576425 ], [ 18.56350112, 54.45785737 ], [ 18.56340158, 54.45800454 ], [ 18.56331423, 54.45816479 ], [ 18.56329691, 54.45825507 ], [ 18.56325546, 54.4583085 ], [ 18.56317597, 54.45849845 ], [ 18.56304434, 54.45877513 ], [ 18.56300386, 54.45893905 ], [ 18.5630559, 54.45903678 ], [ 18.56307375, 54.45908441 ], [ 18.56306277, 54.45915934 ], [ 18.56299907, 54.45938863 ], [ 18.56287892, 54.45974501 ], [ 18.56270482, 54.46029942 ], [ 18.56262331, 54.46049043 ], [ 18.5625369, 54.46077978 ], [ 18.56247587, 54.46098938 ], [ 18.5623601, 54.4612815 ], [ 18.56229986, 54.46141685 ], [ 18.56227393, 54.4615481 ], [ 18.56226546, 54.46166224 ], [ 18.56226723, 54.46172788 ], [ 18.56228809, 54.46182648 ], [ 18.56231445, 54.46188645 ], [ 18.56232576, 54.46196929 ], [ 18.56233704, 54.46206921 ], [ 18.56232206, 54.46209918 ], [ 18.56231427, 54.46213484 ], [ 18.56231637, 54.4621691 ], [ 18.56234035, 54.46222196 ], [ 18.56233997, 54.46225765 ], [ 18.56232962, 54.46230184 ], [ 18.56228754, 54.46234026 ], [ 18.56226987, 54.46239153 ], [ 18.56227406, 54.46246149 ], [ 18.56228218, 54.46261138 ], [ 18.56229818, 54.46271707 ], [ 18.5622895, 54.46285117 ], [ 18.5622813, 54.46292531 ], [ 18.56227996, 54.46305089 ], [ 18.56228842, 54.4631837 ], [ 18.5623137, 54.46333078 ], [ 18.562378, 54.46350938 ], [ 18.56240901, 54.46358231 ], [ 18.5624298, 54.46370222 ], [ 18.5624487, 54.46392731 ], [ 18.5621729, 54.4639148 ], [ 18.56212726, 54.46391832 ], [ 18.56169238, 54.46395148 ], [ 18.56140196, 54.46397358 ], [ 18.56114173, 54.46395907 ], [ 18.56098909, 54.46397334 ], [ 18.56095198, 54.46397765 ], [ 18.5609403, 54.4639583 ], [ 18.56087904, 54.46394457 ], [ 18.5606177, 54.4637973 ], [ 18.56061672, 54.46379669 ], [ 18.56058933, 54.46376027 ], [ 18.56058906, 54.46376018 ], [ 18.56058887, 54.46375993 ], [ 18.56048512, 54.46372589 ], [ 18.5604583, 54.46371242 ], [ 18.56041488, 54.46369057 ], [ 18.56024468, 54.46370654 ], [ 18.56016784, 54.46368174 ], [ 18.5599937, 54.46363538 ], [ 18.55991729, 54.4636192 ], [ 18.55984395, 54.46360185 ], [ 18.55976286, 54.46360447 ], [ 18.55967128, 54.46362924 ], [ 18.55959231, 54.4636739 ], [ 18.55940122, 54.46369626 ], [ 18.55924099, 54.4636864 ], [ 18.55913028, 54.46366517 ], [ 18.55898648, 54.46368371 ], [ 18.55881369, 54.46369089 ], [ 18.55871072, 54.46366118 ], [ 18.55867691, 54.46363818 ], [ 18.55865221, 54.46362133 ], [ 18.55866126, 54.46356886 ], [ 18.55869652, 54.46344727 ], [ 18.55867708, 54.4634178 ], [ 18.55867665, 54.46341764 ], [ 18.55867656, 54.4634175 ], [ 18.55856651, 54.46337739 ], [ 18.55843102, 54.46339455 ], [ 18.55834154, 54.46338113 ], [ 18.55822077, 54.4634373 ], [ 18.55818334, 54.46345167 ], [ 18.55813464, 54.46347427 ], [ 18.55807964, 54.46342353 ], [ 18.55807925, 54.46342336 ], [ 18.558079, 54.46342313 ], [ 18.55814007, 54.46338844 ], [ 18.55803525, 54.46338129 ], [ 18.55797734, 54.46337607 ], [ 18.55794164, 54.46339358 ], [ 18.55787405, 54.4634469 ], [ 18.55787927, 54.46346808 ], [ 18.55791107, 54.46349255 ], [ 18.55785341, 54.46349425 ], [ 18.55777844, 54.46348193 ], [ 18.55772502, 54.46350006 ], [ 18.55769008, 54.46348252 ], [ 18.55762184, 54.46343216 ], [ 18.55752174, 54.46343163 ], [ 18.55743788, 54.46330233 ], [ 18.55743752, 54.4633021 ], [ 18.55743747, 54.46330202 ], [ 18.55738021, 54.46326584 ], [ 18.55731296, 54.4632233 ], [ 18.55732593, 54.46312329 ], [ 18.55732551, 54.46312317 ], [ 18.55732553, 54.46312302 ], [ 18.55726113, 54.46310544 ], [ 18.55719822, 54.46308113 ], [ 18.55718141, 54.46304428 ], [ 18.55718076, 54.46304408 ], [ 18.55718072, 54.463044 ], [ 18.55712249, 54.46302639 ], [ 18.55708517, 54.46302665 ], [ 18.55703075, 54.46305107 ], [ 18.55696634, 54.46305505 ], [ 18.55694968, 54.46303213 ], [ 18.55690503, 54.46300367 ], [ 18.55680686, 54.46299729 ], [ 18.55679135, 54.46299551 ], [ 18.55679107, 54.46299547 ], [ 18.55677278, 54.46298937 ], [ 18.55660883, 54.46293466 ], [ 18.55660846, 54.46293468 ], [ 18.5565319, 54.46293118 ], [ 18.55655836, 54.46293744 ], [ 18.55649936, 54.46295397 ], [ 18.5564403, 54.46296556 ], [ 18.5562393, 54.46295139 ], [ 18.55631999, 54.46288498 ], [ 18.55618125, 54.46293513 ], [ 18.55612681, 54.46288492 ], [ 18.55612635, 54.46288425 ], [ 18.55615613, 54.46282709 ], [ 18.55613259, 54.46279257 ], [ 18.55616687, 54.4627473 ], [ 18.55616113, 54.4627222 ], [ 18.55616048, 54.46272195 ], [ 18.55616046, 54.46272184 ], [ 18.55599472, 54.46265711 ], [ 18.55583954, 54.46259799 ], [ 18.55563599, 54.46254313 ], [ 18.55554155, 54.46253845 ], [ 18.55543613, 54.46247995 ], [ 18.5553298, 54.46233832 ], [ 18.55532366, 54.46223537 ], [ 18.55532324, 54.46223523 ], [ 18.55532322, 54.46223496 ], [ 18.55527598, 54.46222035 ], [ 18.55513178, 54.4622203 ], [ 18.55500431, 54.46221379 ], [ 18.55493254, 54.46219848 ], [ 18.55483496, 54.46220199 ], [ 18.55475452, 54.46222913 ], [ 18.5546557, 54.46222024 ], [ 18.55459016, 54.46223249 ], [ 18.55452469, 54.46222614 ], [ 18.55449261, 54.46226061 ], [ 18.55440282, 54.46225797 ], [ 18.55435314, 54.46223367 ], [ 18.5543032, 54.46223623 ], [ 18.55424237, 54.46220839 ], [ 18.55415146, 54.46220288 ], [ 18.55411025, 54.46220019 ], [ 18.55403617, 54.46223063 ], [ 18.55397333, 54.46223684 ], [ 18.5539233, 54.46225486 ], [ 18.55381953, 54.46226819 ], [ 18.55369902, 54.46226371 ], [ 18.55346056, 54.46223848 ], [ 18.55317775, 54.46226376 ], [ 18.55295596, 54.46230817 ], [ 18.55266926, 54.46234701 ], [ 18.55266246, 54.46233325 ], [ 18.55263426, 54.46228666 ], [ 18.55262349, 54.4622557 ], [ 18.55263671, 54.46223183 ], [ 18.55263622, 54.46223171 ], [ 18.5526363, 54.46223156 ], [ 18.55249376, 54.46219447 ], [ 18.55248795, 54.46219279 ], [ 18.552429, 54.46217461 ], [ 18.55205994, 54.46206094 ], [ 18.55203552, 54.46205335 ], [ 18.55151433, 54.46198125 ], [ 18.55148917, 54.46197777 ], [ 18.55136916, 54.46196475 ], [ 18.55133711, 54.46197766 ], [ 18.5513013, 54.46195844 ], [ 18.55128102, 54.46192205 ], [ 18.55128068, 54.46192204 ], [ 18.55128053, 54.46192176 ], [ 18.5512041, 54.46191933 ], [ 18.55117019, 54.46189664 ], [ 18.55117012, 54.46189663 ], [ 18.55116976, 54.46189639 ], [ 18.55085797, 54.46185379 ], [ 18.55070741, 54.46183894 ], [ 18.55046679, 54.46182548 ], [ 18.55036692, 54.4618101 ], [ 18.55030666, 54.4616124 ], [ 18.55030623, 54.46161234 ], [ 18.55030616, 54.46161211 ], [ 18.54871275, 54.46136001 ], [ 18.54871213, 54.46135901 ], [ 18.54869244, 54.46130418 ], [ 18.54866872, 54.46128905 ], [ 18.54865708, 54.4612703 ], [ 18.54854847, 54.46121227 ], [ 18.54854836, 54.4612123 ], [ 18.54854794, 54.46121203 ], [ 18.54800789, 54.46138698 ], [ 18.54789951, 54.46145908 ], [ 18.5474634, 54.46145674 ], [ 18.54746295, 54.46137246 ], [ 18.54746268, 54.46137236 ], [ 18.54746268, 54.4613722 ], [ 18.5458931, 54.46079818 ], [ 18.54568876, 54.4607514 ], [ 18.54556445, 54.4607317 ], [ 18.54542256, 54.46048396 ], [ 18.54542229, 54.46048385 ], [ 18.54542226, 54.46048379 ], [ 18.54521669, 54.46040215 ], [ 18.54452645, 54.46045099 ], [ 18.54358848, 54.460436 ], [ 18.54356871, 54.46007745 ], [ 18.54355804, 54.45995479 ], [ 18.54355212, 54.45968201 ], [ 18.54351833, 54.45947403 ], [ 18.5434518, 54.45869974 ], [ 18.54344183, 54.45858301 ], [ 18.54339763, 54.45796604 ], [ 18.54332182, 54.45705542 ], [ 18.54332132, 54.45705558 ], [ 18.5433213, 54.45705535 ], [ 18.54245028, 54.45732933 ], [ 18.54194904, 54.45748701 ], [ 18.54128273, 54.45769781 ], [ 18.54106692, 54.45772744 ], [ 18.53960271, 54.45792463 ], [ 18.53910679, 54.4582068 ], [ 18.53885409, 54.45828106 ], [ 18.5379361, 54.45854947 ], [ 18.53793514, 54.45854975 ], [ 18.53755336, 54.45866323 ], [ 18.53754425, 54.45866589 ], [ 18.53705045, 54.4588092 ], [ 18.53694506, 54.4588238 ], [ 18.53663843, 54.45886602 ], [ 18.53660281, 54.4588712 ], [ 18.5353224, 54.45904759 ], [ 18.53267626, 54.45889019 ], [ 18.53169965, 54.45844093 ], [ 18.53147338, 54.45833682 ], [ 18.53147332, 54.45833681 ], [ 18.53147319, 54.45833675 ], [ 18.53139147, 54.45832579 ], [ 18.53126372, 54.45830883 ], [ 18.52985584, 54.45812085 ], [ 18.52828416, 54.45790995 ], [ 18.52815402, 54.45789247 ], [ 18.52719703, 54.45776416 ], [ 18.52689366, 54.45772348 ], [ 18.52605007, 54.45760892 ], [ 18.52501468, 54.45747183 ], [ 18.52320981, 54.45753994 ], [ 18.52257969, 54.45752488 ], [ 18.52214476, 54.45756729 ], [ 18.52176294, 54.45760448 ], [ 18.52110733, 54.45766949 ], [ 18.52072611, 54.45773227 ], [ 18.52001398, 54.45784951 ], [ 18.51997985, 54.45787818 ], [ 18.51994337, 54.45785978 ], [ 18.52036401, 54.4572246 ], [ 18.52109524, 54.4561931 ], [ 18.52115218, 54.45611377 ], [ 18.52042383, 54.45580369 ], [ 18.52042157, 54.4558026 ], [ 18.52005515, 54.45562343 ], [ 18.52002087, 54.45560667 ], [ 18.52002049, 54.45560646 ], [ 18.51936169, 54.45535383 ], [ 18.51916024, 54.45521755 ], [ 18.5190874, 54.45512592 ], [ 18.51883919, 54.45450372 ], [ 18.51877365, 54.45429103 ], [ 18.51879264, 54.45398233 ], [ 18.51879406, 54.45395954 ], [ 18.51880756, 54.45387788 ], [ 18.51891077, 54.45325448 ], [ 18.51900647, 54.4526323 ], [ 18.51903861, 54.45243088 ], [ 18.51912439, 54.45211513 ], [ 18.51929071, 54.45183809 ], [ 18.51922168, 54.45181714 ], [ 18.51822519, 54.45134425 ], [ 18.517104, 54.45082437 ], [ 18.51521001, 54.44994502 ], [ 18.51418785, 54.44947191 ], [ 18.5141759, 54.44946467 ], [ 18.51387271, 54.44932581 ], [ 18.51253878, 54.4486986 ], [ 18.5106129, 54.4478195 ], [ 18.50947744, 54.4472959 ], [ 18.50720802, 54.44624804 ], [ 18.50710449, 54.44625023 ], [ 18.50710146, 54.44620049 ], [ 18.50710141, 54.44619971 ], [ 18.5071014, 54.44619951 ], [ 18.50676588, 54.4460454 ], [ 18.50448478, 54.44500127 ], [ 18.50468323, 54.44474617 ], [ 18.50493774, 54.44423595 ], [ 18.50498, 54.44415129 ], [ 18.50521686, 54.44381468 ], [ 18.5054857, 54.44347646 ], [ 18.50569035, 54.44328315 ], [ 18.50596353, 54.44312263 ], [ 18.50631491, 54.44296554 ], [ 18.50674172, 54.44283833 ], [ 18.50679655, 54.44282193 ], [ 18.50753759, 54.44260086 ], [ 18.50819428, 54.4423663 ], [ 18.5099141, 54.44194334 ], [ 18.51090214, 54.44171725 ], [ 18.51222058, 54.44134941 ], [ 18.51310505, 54.44108978 ], [ 18.51340656, 54.44101645 ], [ 18.51366927, 54.44098299 ], [ 18.51366923, 54.4409828 ], [ 18.51366952, 54.44098277 ], [ 18.51365786, 54.44092473 ], [ 18.51336165, 54.44060628 ], [ 18.51312609, 54.44033581 ], [ 18.51285842, 54.4400689 ], [ 18.51271189, 54.43997858 ], [ 18.51211465, 54.43969649 ], [ 18.51192801, 54.43958112 ], [ 18.51178903, 54.4394404 ], [ 18.51162736, 54.43922273 ], [ 18.51150826, 54.43905647 ], [ 18.51135488, 54.43894626 ], [ 18.5110505, 54.43881081 ], [ 18.5105727, 54.43859032 ], [ 18.50901503, 54.4377482 ], [ 18.50892171, 54.43769783 ], [ 18.50841911, 54.43742483 ], [ 18.50826045, 54.43730578 ], [ 18.50817161, 54.43716464 ], [ 18.50813287, 54.43702558 ], [ 18.50810517, 54.43675019 ], [ 18.50810192, 54.43663629 ], [ 18.50808902, 54.43613914 ], [ 18.50808721, 54.43606908 ], [ 18.50807258, 54.43550128 ], [ 18.50806612, 54.43522154 ], [ 18.50806361, 54.43514746 ], [ 18.50798517, 54.43313507 ], [ 18.50795876, 54.43301036 ], [ 18.50788701, 54.43289778 ], [ 18.50709505, 54.43202009 ], [ 18.5067788, 54.43164571 ], [ 18.5066318, 54.43140525 ], [ 18.506692, 54.43132806 ], [ 18.50679011, 54.43126298 ], [ 18.50727908, 54.43118681 ], [ 18.50765658, 54.4310828 ], [ 18.50821996, 54.43088089 ], [ 18.50845136, 54.43080076 ], [ 18.50870155, 54.43076979 ], [ 18.50911657, 54.43072195 ], [ 18.50941007, 54.43064156 ], [ 18.50957368, 54.43055103 ], [ 18.5095739, 54.43055083 ], [ 18.50957417, 54.43055068 ], [ 18.50967457, 54.43045921 ], [ 18.5097106, 54.43034725 ], [ 18.50967427, 54.43000593 ], [ 18.50966772, 54.42971552 ], [ 18.50963907, 54.42938952 ], [ 18.50968796, 54.42924722 ], [ 18.50978713, 54.42908685 ], [ 18.51002219, 54.42891809 ], [ 18.51037227, 54.42877915 ], [ 18.51050992, 54.42870858 ], [ 18.51072084, 54.42849511 ], [ 18.51081636, 54.42839839 ], [ 18.51087869, 54.42833536 ], [ 18.51090406, 54.42831332 ], [ 18.51103047, 54.42820352 ], [ 18.51114731, 54.42806402 ], [ 18.51115414, 54.42793054 ], [ 18.51109785, 54.42753017 ], [ 18.51102581, 54.42746775 ], [ 18.51088809, 54.42715974 ], [ 18.51086965, 54.42692124 ], [ 18.5108462, 54.4265602 ], [ 18.51079764, 54.42631331 ], [ 18.51064814, 54.42564897 ], [ 18.51057254, 54.42556227 ], [ 18.5104652, 54.42521536 ], [ 18.51038312, 54.42490963 ], [ 18.51025789, 54.42483504 ], [ 18.51002649, 54.42483357 ], [ 18.50989097, 54.42476865 ], [ 18.50950159, 54.42429832 ], [ 18.50945017, 54.42387846 ], [ 18.50937326, 54.42378609 ], [ 18.50921824, 54.42374069 ], [ 18.5088368, 54.42367747 ], [ 18.50865765, 54.42360041 ], [ 18.50816962, 54.42330973 ], [ 18.50815343, 54.42330006 ], [ 18.50814102, 54.42329237 ], [ 18.50781229, 54.42308786 ], [ 18.50769617, 54.42292269 ], [ 18.50756527, 54.42277498 ], [ 18.50754359, 54.42275034 ], [ 18.50761431, 54.42273935 ], [ 18.50818368, 54.42265093 ], [ 18.50992092, 54.42247863 ], [ 18.51201931, 54.42227092 ], [ 18.51238033, 54.42221692 ], [ 18.51428888, 54.42193145 ], [ 18.51539957, 54.4215507 ], [ 18.51556324, 54.42149459 ], [ 18.51567508, 54.42146871 ], [ 18.51611047, 54.42136799 ], [ 18.51656868, 54.42126956 ], [ 18.51704337, 54.42116762 ], [ 18.51820394, 54.42120578 ], [ 18.51895039, 54.42127959 ], [ 18.51944881, 54.42132889 ], [ 18.51956729, 54.42135227 ], [ 18.52018274, 54.42147374 ], [ 18.52042514, 54.4215215 ], [ 18.52053895, 54.42154395 ], [ 18.52078028, 54.42179143 ], [ 18.52227825, 54.42218137 ], [ 18.52234881, 54.42219974 ], [ 18.52405765, 54.42260816 ], [ 18.52416014, 54.422628 ], [ 18.52443774, 54.42268178 ], [ 18.5261419, 54.4229546 ], [ 18.52669631, 54.42304915 ], [ 18.52721296, 54.4231373 ], [ 18.52789903, 54.42323105 ], [ 18.52855551, 54.42320528 ], [ 18.52915515, 54.42318177 ], [ 18.52997936, 54.42309728 ], [ 18.53102283, 54.42299033 ], [ 18.53183179, 54.42298593 ], [ 18.5319306, 54.4229854 ], [ 18.53193062, 54.4229854 ], [ 18.53193065, 54.4229854 ], [ 18.53204532, 54.42295945 ], [ 18.53329509, 54.42267679 ], [ 18.53412256, 54.42246739 ], [ 18.5343668, 54.4224056 ], [ 18.5348361, 54.42230744 ], [ 18.53548437, 54.42217188 ], [ 18.53620379, 54.42203359 ], [ 18.53628286, 54.4220184 ], [ 18.5373213, 54.42181642 ], [ 18.53777109, 54.42204154 ], [ 18.53827498, 54.42200302 ], [ 18.53885299, 54.42195888 ], [ 18.53910257, 54.42172255 ], [ 18.53913934, 54.42172981 ], [ 18.53944954, 54.42179111 ], [ 18.5395864, 54.42176854 ], [ 18.53982648, 54.42172902 ], [ 18.5402675, 54.42165275 ], [ 18.54052862, 54.42163936 ], [ 18.54086436, 54.42162217 ], [ 18.54107876, 54.42164176 ], [ 18.54125439, 54.42165785 ], [ 18.54154908, 54.42172607 ], [ 18.54173223, 54.4217685 ], [ 18.54199191, 54.42181032 ], [ 18.54227248, 54.42185553 ], [ 18.54264294, 54.42193995 ], [ 18.54277938, 54.42197106 ], [ 18.5430073, 54.42203387 ], [ 18.54336914, 54.42213361 ], [ 18.5435447, 54.42220974 ], [ 18.5443661, 54.42256599 ], [ 18.54490899, 54.42254691 ], [ 18.54552224, 54.42245213 ], [ 18.5462949, 54.4224411 ], [ 18.54693219, 54.42248682 ], [ 18.54712529, 54.42250413 ], [ 18.5471552, 54.42250681 ], [ 18.54732741, 54.4225151 ], [ 18.54745444, 54.42250914 ], [ 18.54769103, 54.42249807 ], [ 18.54786673, 54.42248988 ], [ 18.548569, 54.42233769 ], [ 18.54866643, 54.42231658 ], [ 18.54885963, 54.42227072 ], [ 18.54942231, 54.42213716 ], [ 18.55066633, 54.42186553 ], [ 18.55204778, 54.42157246 ], [ 18.55286526, 54.42140783 ], [ 18.5532811, 54.42126221 ], [ 18.55346981, 54.42119613 ], [ 18.55346985, 54.42119611 ], [ 18.55346988, 54.4211961 ], [ 18.55402093, 54.42092079 ], [ 18.55457073, 54.42069485 ], [ 18.55464189, 54.42066561 ], [ 18.55543054, 54.42039039 ], [ 18.55594927, 54.42016213 ], [ 18.55636889, 54.42004056 ], [ 18.55743097, 54.4197329 ], [ 18.5576508, 54.4201082 ], [ 18.55765128, 54.42010899 ], [ 18.55779822, 54.42034852 ], [ 18.55819558, 54.42098612 ], [ 18.55851128, 54.42158164 ], [ 18.55855427, 54.42166275 ], [ 18.5588805, 54.42224496 ], [ 18.55903146, 54.42251192 ], [ 18.55917318, 54.42276262 ], [ 18.55925996, 54.42293599 ], [ 18.55926639, 54.42294868 ], [ 18.55927456, 54.42296486 ], [ 18.55929232, 54.42300035 ], [ 18.55930827, 54.42303227 ], [ 18.55931117, 54.42303204 ], [ 18.55955423, 54.42301217 ], [ 18.55969249, 54.42300068 ], [ 18.55970283, 54.42299982 ], [ 18.5597029, 54.42299981 ], [ 18.55970259, 54.42295444 ], [ 18.56035094, 54.42272835 ], [ 18.56048637, 54.42268151 ], [ 18.56066274, 54.42262052 ], [ 18.56069893, 54.42260801 ], [ 18.5608389, 54.42255969 ], [ 18.5609639, 54.4225176 ], [ 18.56109343, 54.42248079 ], [ 18.56122767, 54.42244989 ], [ 18.5612987, 54.42243686 ], [ 18.56136538, 54.42242466 ], [ 18.56150573, 54.42240512 ], [ 18.5615385, 54.4224022 ], [ 18.56165382, 54.42239193 ], [ 18.56171817, 54.42238562 ], [ 18.56185958, 54.42237179 ], [ 18.56243586, 54.42295243 ], [ 18.56246758, 54.42298427 ], [ 18.56248174, 54.42299846 ], [ 18.56248879, 54.42300554 ], [ 18.56254726, 54.42306404 ], [ 18.56274424, 54.42326114 ], [ 18.56279012, 54.42330727 ], [ 18.56281798, 54.42333531 ], [ 18.56300544, 54.42352505 ], [ 18.5630113, 54.42353092 ], [ 18.56303344, 54.42355314 ], [ 18.56310722, 54.42362738 ], [ 18.56311527, 54.42363549 ], [ 18.56327056, 54.42379158 ], [ 18.56353233, 54.42380745 ], [ 18.56361846, 54.42381288 ], [ 18.56361901, 54.42381289 ], [ 18.56361952, 54.42381292 ], [ 18.56386078, 54.42383014 ], [ 18.56393263, 54.42383551 ], [ 18.56393889, 54.42383598 ], [ 18.5640794, 54.42384485 ], [ 18.56411361, 54.42384722 ], [ 18.56421087, 54.42384942 ], [ 18.56445417, 54.42385495 ], [ 18.56546201, 54.42387764 ], [ 18.56572598, 54.42387914 ], [ 18.56599109, 54.42388068 ], [ 18.56607421, 54.4238812 ], [ 18.56612568, 54.42388154 ], [ 18.56689566, 54.42380947 ], [ 18.56713512, 54.42378706 ], [ 18.56741081, 54.42377178 ], [ 18.5675693, 54.423763 ], [ 18.56757038, 54.42376291 ], [ 18.56759978, 54.42376061 ], [ 18.57056189, 54.42352402 ], [ 18.5706124, 54.42353294 ], [ 18.57090438, 54.42358888 ], [ 18.57279574, 54.4239465 ], [ 18.57437218, 54.4243691 ], [ 18.57485303, 54.42449799 ], [ 18.5764275, 54.42491995 ], [ 18.5764853, 54.42493546 ], [ 18.57659357, 54.42496456 ], [ 18.57674255, 54.42500491 ], [ 18.57681389, 54.42502395 ], [ 18.57691146, 54.425042 ], [ 18.57692946, 54.42504554 ], [ 18.57694826, 54.42504927 ], [ 18.57747443, 54.42500318 ], [ 18.57758817, 54.42491746 ], [ 18.57765981, 54.42486303 ], [ 18.57769293, 54.42483788 ], [ 18.57845901, 54.42425413 ], [ 18.57888069, 54.42422913 ], [ 18.5790318, 54.42422018 ], [ 18.57974926, 54.42418071 ], [ 18.58006221, 54.42423068 ], [ 18.57986745, 54.42535025 ], [ 18.57977827, 54.42582345 ], [ 18.57975739, 54.42582214 ], [ 18.5797325, 54.42582055 ], [ 18.57965593, 54.42581568 ], [ 18.57959461, 54.42581175 ], [ 18.57922735, 54.42578089 ], [ 18.57904743, 54.42576181 ], [ 18.57899676, 54.42575643 ], [ 18.5795396, 54.42625894 ], [ 18.58206209, 54.42697024 ], [ 18.582308, 54.4267298 ], [ 18.58339232, 54.42566866 ], [ 18.58387324, 54.4259233 ], [ 18.58393028, 54.42595442 ], [ 18.58420971, 54.42609038 ], [ 18.5842135, 54.42609222 ], [ 18.58421353, 54.42609224 ], [ 18.58421442, 54.42609276 ], [ 18.58488394, 54.42647256 ], [ 18.58512148, 54.42660731 ], [ 18.58517002, 54.42663573 ], [ 18.58528584, 54.42670355 ], [ 18.58530929, 54.4267172 ], [ 18.58580132, 54.42700495 ], [ 18.5862371, 54.42725969 ], [ 18.58625892, 54.42727243 ], [ 18.58626512, 54.42727606 ], [ 18.58635601, 54.42732836 ], [ 18.58716826, 54.42780418 ], [ 18.58735302, 54.42791227 ], [ 18.58783176, 54.42820113 ], [ 18.5878613, 54.42821886 ], [ 18.58852859, 54.42862091 ], [ 18.58855772, 54.42863852 ], [ 18.58884658, 54.42881327 ], [ 18.58892531, 54.42885893 ], [ 18.58895556, 54.4288765 ], [ 18.58900718, 54.42890868 ], [ 18.58908166, 54.42895531 ], [ 18.58965104, 54.42929772 ], [ 18.59047832, 54.42979522 ], [ 18.59061259, 54.42987623 ], [ 18.59063847, 54.42989243 ], [ 18.59066036, 54.42990616 ], [ 18.59067001, 54.42991152 ], [ 18.59067496, 54.42991429 ], [ 18.59074475, 54.42995341 ], [ 18.5908603, 54.43001821 ], [ 18.5911589, 54.43018575 ], [ 18.59131094, 54.43026853 ] ] ] } }
]
}
