{"type":"FeatureCollection","features":[{"type":"Feature","properties":{"postcode":"81-701","street":"Aleja Niepodległości","house_number":"724","within":["81-853"]},"geometry":{"type":"Point","coordinates":[18.56098537,54.43604772]}},{"type":"Feature","properties":{"postcode":"81-705","street":"Grunwaldzka","house_number":"78/80","within":["81-771"]},"geometry":{"type":"MultiPoint","coordinates":[[18.57299572,54.4394512],[18.57309008,54.43934303]]}},{"type":"Feature","properties":{"postcode":"81-806","street":"Obodrzyców","house_number":"1a","within":["81-812"]},"geometry":{"type":"Point","coordinates":[18.55254496,54.45546218]}},{"type":"Feature","properties":{"postcode":"81-881","street":"Oskara Kolberga","house_number":"9","within":["81-881"]},"geometry":{"type":"Point","coordinates":[18.535811,54.4575408]}},{"type":"Feature","properties":{"postcode":"81-701","street":"Tadeusza Kościuszki","house_number":"2","within":["81-704"]},"geometry":{"type":"Point","coordinates":[18.56324241,54.44236428]}}]}